OBJECT_NAME,OBJECT_ID,EPOCH,MEAN_MOTION,ECCENTRICITY,INCLINATION,RA_OF_ASC_NODE,ARG_OF_PERICENTER,MEAN_ANOMALY,EPHEMERIS_TYPE,CLASSIFICATION_TYPE,NORAD_CAT_ID,ELEMENT_SET_NO,REV_AT_EPOCH,BSTAR,MEAN_MOTION_DOT,MEAN_MOTION_DDOT
IONOSFERA-M 2,2024-199B,2026-06-30T14:09:33.465024,14.22760023,.00004745,98.7154,54.5302,44.1195,316.0021,0,U,61736,999,13273,.50531007E-4,.69E-6,0
PRSC-EO1,2025-012A,2026-06-29T07:45:24.437664,15.17758644,.00058235,97.4228,252.5458,202.3113,157.7868,0,U,62725,999,8003,.31012403E-3,.6199E-4,0
BIOMASS,2025-090A,2026-06-25T10:04:41.476800,14.67536962,.0001429,98.0741,3.6181,94.8977,265.2391,0,U,63772,999,6189,.12495E-3,.661E-5,0
GOSAT-GW (IBUKI GW),2025-141A,2026-06-30T13:17:21.077088,14.67554182,.00014269,98.0569,118.6536,84.3316,275.8052,0,U,64694,999,5380,.12258972E-3,.648E-5,0
IONOSFERA-M 3,2025-155A,2026-06-30T13:10:58.077984,14.21488602,.00017134,98.6031,143.1183,134.5935,225.5383,0,U,64876,999,4830,.35297189E-4,.34E-6,0
IONOSFERA-M 4,2025-155B,2026-06-30T12:19:44.884416,14.21491006,.00014776,98.6030,143.0008,112.5989,247.5345,0,U,64877,999,4829,.38089301E-4,.4E-6,0
MICROCARB,2025-156A,2026-06-30T03:05:56.488128,14.72854957,.0016375,97.9946,258.0452,219.7176,140.2834,0,U,64899,999,4987,.93084676E-4,.547E-5,0
CO3D 3,2025-156B,2026-06-30T13:11:30.481440,15.20194749,.00017877,97.4336,260.0505,112.2283,247.9142,0,U,64900,999,5156,.20447469E-3,.436E-4,0
CO3D 4,2025-156C,2026-06-30T13:11:43.908000,15.20184312,.00006736,97.4335,260.0504,185.3802,174.7426,0,U,64901,999,5156,.11471248E-3,.2415E-4,0
CO3D 2,2025-156D,2026-06-30T12:23:42.860256,15.20196630,.00014743,97.4336,259.9166,94.6389,265.5015,0,U,64902,999,5155,.20760873E-3,.4429E-4,0
CO3D 1,2025-156E,2026-06-30T12:23:56.207328,15.20201993,.00013502,97.4337,259.9167,105.0621,255.0764,0,U,64903,999,5155,.20866599E-3,.4452E-4,0
PRSC-S1,2025-164A,2026-06-30T12:33:02.422080,15.06550381,.00050188,41.1288,212.6997,84.9950,275.1437,0,U,65055,999,5044,.20190506E-3,.2863E-4,0
SENTINEL-6B,2025-264A,2026-06-30T04:51:43.668864,12.80929932,.00079243,66.0411,108.1461,268.9102,91.1006,0,U,66514,999,2883,-.20476063E-4,-.66E-6,0
CAS500-3,2025-274F,2026-06-30T09:25:06.257856,14.88352436,.00069353,97.7444,109.1431,76.5580,283.6409,0,U,66655,999,3211,.14439281E-3,.1283E-4,0
CSG-3,2026-001A,2026-06-30T11:57:57.966048,14.82162622,.00014754,97.8889,4.9077,95.4937,264.6445,0,U,67304,999,2643,.4772621E-4,.328E-5,0
PRSC-E03,2026-092A,2026-06-30T13:48:51.452064,15.06739625,.0002993,38.0020,10.7285,144.0803,216.0160,0,U,68835,999,997,.20724621E-3,.3033E-4,0
CAS500-2,2026-100AK,2026-06-30T05:55:37.601472,15.20740849,.00092079,97.3894,78.8620,351.5900,8.5180,0,U,69013,999,879,.27527979E-3,.5997E-4,0
