IONOSFERA-M 2           
1 61736U 24199B   26181.58997066  .00000069  00000+0  50531-4 0  9998
2 61736  98.7154  54.5302 0000474  44.1195 316.0021 14.22760023132733
PRSC-EO1                
1 62725U 25012A   26180.32319951  .00006199  00000+0  31012-3 0  9996
2 62725  97.4228 252.5458 0005823 202.3113 157.7868 15.17758644 80038
BIOMASS                 
1 63772U 25090A   26176.41992450  .00000661  00000+0  12495-3 0  9993
2 63772  98.0741   3.6181 0001429  94.8977 265.2391 14.67536962 61896
GOSAT-GW (IBUKI GW)     
1 64694U 25141A   26181.55371617  .00000648  00000+0  12259-3 0  9994
2 64694  98.0569 118.6536 0001426  84.3316 275.8052 14.67554182 53804
IONOSFERA-M 3           
1 64876U 25155A   26181.54928331  .00000034  00000+0  35297-4 0  9998
2 64876  98.6031 143.1183 0001713 134.5935 225.5383 14.21488602 48302
IONOSFERA-M 4           
1 64877U 25155B   26181.51371394  .00000040  00000+0  38089-4 0  9996
2 64877  98.6030 143.0008 0001477 112.5989 247.5345 14.21491006 48291
MICROCARB               
1 64899U 25156A   26181.12912602  .00000547  00000+0  93085-4 0  9990
2 64899  97.9946 258.0452 0016375 219.7176 140.2834 14.72854957 49875
CO3D 3                  
1 64900U 25156B   26181.54965835  .00004360  00000+0  20447-3 0  9993
2 64900  97.4336 260.0505 0001787 112.2283 247.9142 15.20194749 51561
CO3D 4                  
1 64901U 25156C   26181.54981375  .00002415  00000+0  11471-3 0  9997
2 64901  97.4335 260.0504 0000673 185.3802 174.7426 15.20184312 51568
CO3D 2                  
1 64902U 25156D   26181.51646829  .00004429  00000+0  20761-3 0  9996
2 64902  97.4336 259.9166 0001474  94.6389 265.5015 15.20196630 51551
CO3D 1                  
1 64903U 25156E   26181.51662277  .00004452  00000+0  20867-3 0  9995
2 64903  97.4337 259.9167 0001350 105.0621 255.0764 15.20201993 51557
PRSC-S1                 
1 65055U 25164A   26181.52294470  .00002863  00000+0  20191-3 0  9994
2 65055  41.1288 212.6997 0005018  84.9950 275.1437 15.06550381 50448
SENTINEL-6B             
1 66514U 25264A   26181.20258876 -.00000066  00000+0 -20476-4 0  9993
2 66514  66.0411 108.1461 0007924 268.9102  91.1006 12.80929932 28836
CAS500-3                
1 66655U 25274F   26181.39243354  .00001283  00000+0  14439-3 0  9996
2 66655  97.7444 109.1431 0006935  76.5580 283.6409 14.88352436 32111
CSG-3                   
1 67304U 26001A   26181.49858757  .00000328  00000+0  47726-4 0  9992
2 67304  97.8889   4.9077 0001475  95.4937 264.6445 14.82162622 26432
PRSC-E03                
1 68835U 26092A   26181.57559551  .00003033  00000+0  20725-3 0  9996
2 68835  38.0020  10.7285 0002993 144.0803 216.0160 15.06739625  9976
CAS500-2                
1 69013U 26100AK  26181.24696298  .00005997  00000+0  27528-3 0  9998
2 69013  97.3894  78.8620 0009207 351.5900   8.5180 15.20740849  8799
